[
    {
        "CCSDS_OMM_VERS": "3.0",
        "COMMENT": "GENERATED VIA SPACE-TRACK.ORG API",
        "CREATION_DATE": "2024-08-10T22:46:31",
        "ORIGINATOR": "18 SPCS",
        "OBJECT_NAME": "OBJECT X",
        "OBJECT_ID": "2024-043X",
        "CENTER_NAME": "EARTH",
        "REF_FRAME": "TEME",
        "TIME_SYSTEM": "UTC",
        "MEAN_ELEMENT_THEORY": "SGP4",
        "EPOCH": "2024-08-10T20:53:16.238976",
        "MEAN_MOTION": "15.23968183",
        "ECCENTRICITY": "0.00116630",
        "INCLINATION": "97.4770",
        "RA_OF_ASC_NODE": "347.5747",
        "ARG_OF_PERICENTER": "103.3707",
        "MEAN_ANOMALY": "256.8831",
        "EPHEMERIS_TYPE": "0",
        "CLASSIFICATION_TYPE": "U",
        "NORAD_CAT_ID": "59119",
        "ELEMENT_SET_NO": "999",
        "REV_AT_EPOCH": "2414",
        "BSTAR": "0.00165860000000",
        "MEAN_MOTION_DOT": "0.00040318",
        "MEAN_MOTION_DDOT": "0.0000000000000",
        "SEMIMAJOR_AXIS": "6872.023",
        "PERIOD": "94.490",
        "APOAPSIS": "501.902",
        "PERIAPSIS": "485.873",
        "OBJECT_TYPE": "UNKNOWN",
        "RCS_SIZE": "MEDIUM",
        "COUNTRY_CODE": "TBD",
        "LAUNCH_DATE": "2024-03-04",
        "SITE": "AFWTR",
        "DECAY_DATE": null,
        "FILE": "4427426",
        "GP_ID": "264736919",
        "TLE_LINE0": "0 OBJECT X",
        "TLE_LINE1": "1 59119U 24043X   24223.87032684  .00040318  00000-0  16586-2 0  9993",
        "TLE_LINE2": "2 59119  97.4770 347.5747 0011663 103.3707 256.8831 15.23968183 24146"
    },
    {
        "CCSDS_OMM_VERS": "3.0",
        "COMMENT": "GENERATED VIA SPACE-TRACK.ORG API",
        "CREATION_DATE": "2024-08-10T22:56:16",
        "ORIGINATOR": "18 SPCS",
        "OBJECT_NAME": "NUSAT-29 (EDITH CLARKE)",
        "OBJECT_ID": "2022-057AJ",
        "CENTER_NAME": "EARTH",
        "REF_FRAME": "TEME",
        "TIME_SYSTEM": "UTC",
        "MEAN_ELEMENT_THEORY": "SGP4",
        "EPOCH": "2024-08-10T20:53:15.766368",
        "MEAN_MOTION": "15.29703502",
        "ECCENTRICITY": "0.00068980",
        "INCLINATION": "97.4525",
        "RA_OF_ASC_NODE": "342.5226",
        "ARG_OF_PERICENTER": "253.9546",
        "MEAN_ANOMALY": "106.0935",
        "EPHEMERIS_TYPE": "0",
        "CLASSIFICATION_TYPE": "U",
        "NORAD_CAT_ID": "52764",
        "ELEMENT_SET_NO": "999",
        "REV_AT_EPOCH": "12305",
        "BSTAR": "0.00130700000000",
        "MEAN_MOTION_DOT": "0.00037706",
        "MEAN_MOTION_DDOT": "0.0000000000000",
        "SEMIMAJOR_AXIS": "6854.835",
        "PERIOD": "94.136",
        "APOAPSIS": "481.428",
        "PERIAPSIS": "471.971",
        "OBJECT_TYPE": "PAYLOAD",
        "RCS_SIZE": "MEDIUM",
        "COUNTRY_CODE": "ARGN",
        "LAUNCH_DATE": "2022-05-25",
        "SITE": "AFETR",
        "DECAY_DATE": null,
        "FILE": "4427567",
        "GP_ID": "264741197",
        "TLE_LINE0": "0 NUSAT-29 (EDITH CLARKE)",
        "TLE_LINE1": "1 52764U 22057AJ  24223.87032137  .00037706  00000-0  13070-2 0  9990",
        "TLE_LINE2": "2 52764  97.4525 342.5226 0006898 253.9546 106.0935 15.29703502123056"
    },
    {
        "CCSDS_OMM_VERS": "3.0",
        "COMMENT": "GENERATED VIA SPACE-TRACK.ORG API",
        "CREATION_DATE": "2024-08-10T22:56:16",
        "ORIGINATOR": "18 SPCS",
        "OBJECT_NAME": "STARLINK-11105",
        "OBJECT_ID": "2024-091F",
        "CENTER_NAME": "EARTH",
        "REF_FRAME": "TEME",
        "TIME_SYSTEM": "UTC",
        "MEAN_ELEMENT_THEORY": "SGP4",
        "EPOCH": "2024-08-10T20:53:14.473824",
        "MEAN_MOTION": "15.69702007",
        "ECCENTRICITY": "0.00012270",
        "INCLINATION": "53.1568",
        "RA_OF_ASC_NODE": "164.9193",
        "ARG_OF_PERICENTER": "10.5592",
        "MEAN_ANOMALY": "349.5451",
        "EPHEMERIS_TYPE": "0",
        "CLASSIFICATION_TYPE": "U",
        "NORAD_CAT_ID": "59758",
        "ELEMENT_SET_NO": "999",
        "REV_AT_EPOCH": "1503",
        "BSTAR": "0.00001385800000",
        "MEAN_MOTION_DOT": "0.00001090",
        "MEAN_MOTION_DDOT": "0.0000000000000",
        "SEMIMAJOR_AXIS": "6737.887",
        "PERIOD": "91.737",
        "APOAPSIS": "360.578",
        "PERIAPSIS": "358.925",
        "OBJECT_TYPE": "PAYLOAD",
        "RCS_SIZE": "LARGE",
        "COUNTRY_CODE": "US",
        "LAUNCH_DATE": "2024-05-14",
        "SITE": "AFWTR",
        "DECAY_DATE": null,
        "FILE": "4427619",
        "GP_ID": "264740354",
        "TLE_LINE0": "0 STARLINK-11105",
        "TLE_LINE1": "1 59758U 24091F   24223.87030641  .00001090  00000-0  13858-4 0  9991",
        "TLE_LINE2": "2 59758  53.1568 164.9193 0001227  10.5592 349.5451 15.69702007 15038"
    },
    {
        "CCSDS_OMM_VERS": "3.0",
        "COMMENT": "GENERATED VIA SPACE-TRACK.ORG API",
        "CREATION_DATE": "2024-08-10T22:46:31",
        "ORIGINATOR": "18 SPCS",
        "OBJECT_NAME": "TUBSAT-30",
        "OBJECT_ID": "2024-128F",
        "CENTER_NAME": "EARTH",
        "REF_FRAME": "TEME",
        "TIME_SYSTEM": "UTC",
        "MEAN_ELEMENT_THEORY": "SGP4",
        "EPOCH": "2024-08-10T20:53:14.193888",
        "MEAN_MOTION": "14.96545772",
        "ECCENTRICITY": "0.00109460",
        "INCLINATION": "61.9985",
        "RA_OF_ASC_NODE": "51.0228",
        "ARG_OF_PERICENTER": "293.1857",
        "MEAN_ANOMALY": "66.8078",
        "EPHEMERIS_TYPE": "0",
        "CLASSIFICATION_TYPE": "U",
        "NORAD_CAT_ID": "60240",
        "ELEMENT_SET_NO": "999",
        "REV_AT_EPOCH": "479",
        "BSTAR": "0.00063345000000",
        "MEAN_MOTION_DOT": "0.00007063",
        "MEAN_MOTION_DDOT": "0.0000000000000",
        "SEMIMAJOR_AXIS": "6955.716",
        "PERIOD": "96.222",
        "APOAPSIS": "585.195",
        "PERIAPSIS": "569.967",
        "OBJECT_TYPE": "PAYLOAD",
        "RCS_SIZE": "MEDIUM",
        "COUNTRY_CODE": "GER",
        "LAUNCH_DATE": "2024-07-09",
        "SITE": "FRGUI",
        "DECAY_DATE": null,
        "FILE": "4427473",
        "GP_ID": "264737269",
        "TLE_LINE0": "0 TUBSAT-30",
        "TLE_LINE1": "1 60240U 24128F   24223.87030317  .00007063  00000-0  63345-3 0  9991",
        "TLE_LINE2": "2 60240  61.9985  51.0228 0010946 293.1857  66.8078 14.96545772  4790"
    },
    {
        "CCSDS_OMM_VERS": "3.0",
        "COMMENT": "GENERATED VIA SPACE-TRACK.ORG API",
        "CREATION_DATE": "2024-08-10T22:36:16",
        "ORIGINATOR": "18 SPCS",
        "OBJECT_NAME": "DELTA 1 R/B",
        "OBJECT_ID": "1965-051B",
        "CENTER_NAME": "EARTH",
        "REF_FRAME": "TEME",
        "TIME_SYSTEM": "UTC",
        "MEAN_ELEMENT_THEORY": "SGP4",
        "EPOCH": "2024-08-10T20:53:11.493024",
        "MEAN_MOTION": "14.59678272",
        "ECCENTRICITY": "0.00405140",
        "INCLINATION": "98.4853",
        "RA_OF_ASC_NODE": "351.2524",
        "ARG_OF_PERICENTER": "204.6500",
        "MEAN_ANOMALY": "155.2764",
        "EPHEMERIS_TYPE": "0",
        "CLASSIFICATION_TYPE": "U",
        "NORAD_CAT_ID": "1433",
        "ELEMENT_SET_NO": "999",
        "REV_AT_EPOCH": "11701",
        "BSTAR": "0.00094750000000",
        "MEAN_MOTION_DOT": "0.00004518",
        "MEAN_MOTION_DDOT": "0.0000000000000",
        "SEMIMAJOR_AXIS": "7072.350",
        "PERIOD": "98.652",
        "APOAPSIS": "722.868",
        "PERIAPSIS": "665.562",
        "OBJECT_TYPE": "ROCKET BODY",
        "RCS_SIZE": "MEDIUM",
        "COUNTRY_CODE": "US",
        "LAUNCH_DATE": "1965-07-02",
        "SITE": "AFETR",
        "DECAY_DATE": null,
        "FILE": "4427314",
        "GP_ID": "264732224",
        "TLE_LINE0": "0 DELTA 1 R/B",
        "TLE_LINE1": "1  1433U 65051B   24223.87027191  .00004518  00000-0  94750-3 0  9992",
        "TLE_LINE2": "2  1433  98.4853 351.2524 0040514 204.6500 155.2764 14.59678272117014"
    },
    {
        "CCSDS_OMM_VERS": "3.0",
        "COMMENT": "GENERATED VIA SPACE-TRACK.ORG API",
        "CREATION_DATE": "2024-08-10T22:56:16",
        "ORIGINATOR": "18 SPCS",
        "OBJECT_NAME": "FLOCK 4X 16",
        "OBJECT_ID": "2022-002AN",
        "CENTER_NAME": "EARTH",
        "REF_FRAME": "TEME",
        "TIME_SYSTEM": "UTC",
        "MEAN_ELEMENT_THEORY": "SGP4",
        "EPOCH": "2024-08-10T20:53:06.542304",
        "MEAN_MOTION": "15.53995102",
        "ECCENTRICITY": "0.00051110",
        "INCLINATION": "97.3833",
        "RA_OF_ASC_NODE": "301.2167",
        "ARG_OF_PERICENTER": "162.2401",
        "MEAN_ANOMALY": "197.9032",
        "EPHEMERIS_TYPE": "0",
        "CLASSIFICATION_TYPE": "U",
        "NORAD_CAT_ID": "51020",
        "ELEMENT_SET_NO": "999",
        "REV_AT_EPOCH": "14350",
        "BSTAR": "0.00141300000000",
        "MEAN_MOTION_DOT": "0.00092190",
        "MEAN_MOTION_DDOT": "0.0000000000000",
        "SEMIMAJOR_AXIS": "6783.212",
        "PERIOD": "92.664",
        "APOAPSIS": "408.544",
        "PERIAPSIS": "401.610",
        "OBJECT_TYPE": "PAYLOAD",
        "RCS_SIZE": "SMALL",
        "COUNTRY_CODE": "US",
        "LAUNCH_DATE": "2022-01-13",
        "SITE": "AFETR",
        "DECAY_DATE": null,
        "FILE": "4427652",
        "GP_ID": "264740406",
        "TLE_LINE0": "0 FLOCK 4X 16",
        "TLE_LINE1": "1 51020U 22002AN  24223.87021461  .00092190  00000-0  14130-2 0  9998",
        "TLE_LINE2": "2 51020  97.3833 301.2167 0005111 162.2401 197.9032 15.53995102143501"
    }
]